ONEWEB-0210             
1 48787U 21045W   25047.90631705  .00000184  00000+0  45555-3 0  9994
2 48787  87.9123 355.8172 0002102 103.1061 257.0304 13.15547638180513
ONEWEB-0214             
1 48788U 21045X   25047.83976710  .00000242  00000+0  60828-3 0  9990
2 48788  87.9123 355.8195 0001805  98.6667 261.4668 13.15548089180476
ONEWEB-0221             
1 48789U 21045Y   25047.92215708  .00000166  00000+0  40604-3 0  9999
2 48789  87.9123 355.8279 0002032  82.3095 277.8265 13.15550380180570
ONEWEB-0213             
1 48790U 21045Z   25048.13923703  .00000098  00000+0  22633-3 0  9992
2 48790  87.9124 355.7943 0002024  88.3565 271.7797 13.15546349181797
ONEWEB-0212             
1 48791U 21045AA  25048.11625629 -.00000078  00000+0 -24092-3 0  9998
2 48791  87.9127 355.7862 0001886  79.5198 280.6145 13.15545939181790
ONEWEB-0227             
1 48792U 21045AB  25048.11547301 -.00000098  00000+0 -29374-3 0  9999
2 48792  87.9125 355.7994 0001994  82.4023 277.7334 13.15546796181738
ONEWEB-0226             
1 48793U 21045AC  25048.10913589 -.00000150  00000+0 -43133-3 0  9992
2 48793  87.9125 355.8053 0001998  93.1875 266.9484 13.15547327181696
ONEWEB-0224             
1 48794U 21045AD  25047.92057111  .00000175  00000+0  43110-3 0  9992
2 48794  87.9128 355.8742 0002764  71.6421 288.5010 13.15546338180476
